start=new Date('2023-04-15T00:00:00.000Z').valueOf();
sats=[{"LAUNCH_DATE":"2021-03-14","MEAN_MOTION_DOT":"0.00021756","BSTAR":"0.00147620000000","TIME_SYSTEM":"UTC","OBJECT_ID":"2021-021AF","REF_FRAME":"TEME","TLE_LINE1":"1 47889U 21021AF  23104.97668788  .00021756  00000-0  14762-2 0  9994","RA_OF_ASC_NODE":"348.8533","ECCENTRICITY":"0.00010650","APOAPSIS":"548.046","PERIOD":"95.594","ARG_OF_PERICENTER":"107.9884","SEMIMAJOR_AXIS":"6925.444","OBJECT_NAME":"STARLINK-2349","MEAN_ANOMALY":"252.1221","CLASSIFICATION_TYPE":"U","COUNTRY_CODE":"US","SITE":"AFETR","INCLINATION":"53.0551","GP_ID":"230067104","TLE_LINE2":"2 47889  53.0551 348.8533 0001065 107.9884 252.1221 15.06368951115994","CENTER_NAME":"EARTH","MEAN_MOTION":"15.06368951","OBJECT_TYPE":"PAYLOAD","REV_AT_EPOCH":"11599","FILE":"3887558","DECAY_DATE":null,"ELEMENT_SET_NO":"999","PERIAPSIS":"546.571","RCS_SIZE":"LARGE","MEAN_ELEMENT_THEORY":"SGP4","MEAN_MOTION_DDOT":"0.0000000000000","EPHEMERIS_TYPE":"0","NORAD_CAT_ID":"47889","EPOCH":"2023-04-14T23:26:25.832832"},{"ECCENTRICITY":"0.00014780","RA_OF_ASC_NODE":"0.0155","TLE_LINE1":"1 47891U 21021AH  23104.71774227  .00007090  00000-0  49448-3 0  9990","OBJECT_NAME":"STARLINK-2351","SEMIMAJOR_AXIS":"6925.367","ARG_OF_PERICENTER":"108.1900","PERIOD":"95.593","APOAPSIS":"548.255","COUNTRY_CODE":"US","MEAN_ANOMALY":"251.9250","CLASSIFICATION_TYPE":"U","INCLINATION":"53.0562","SITE":"AFETR","LAUNCH_DATE":"2021-03-14","BSTAR":"0.00049448000000","MEAN_MOTION_DOT":"0.00007090","TIME_SYSTEM":"UTC","REF_FRAME":"TEME","OBJECT_ID":"2021-021AH","PERIAPSIS":"546.208","ELEMENT_SET_NO":"999","MEAN_ELEMENT_THEORY":"SGP4","RCS_SIZE":"LARGE","MEAN_MOTION_DDOT":"0.0000000000000","NORAD_CAT_ID":"47891","EPOCH":"2023-04-14T17:13:32.932128","EPHEMERIS_TYPE":"0","GP_ID":"230064441","CENTER_NAME":"EARTH","TLE_LINE2":"2 47891  53.0562   0.0155 0001478 108.1900 251.9250 15.06394108115819","REV_AT_EPOCH":"11581","OBJECT_TYPE":"PAYLOAD","MEAN_MOTION":"15.06394108","DECAY_DATE":null,"FILE":"3887441"},{"TLE_LINE1":"1 47892U 21021AJ  23104.70758685  .00003393  00000-0  18343-3 0  9992","RA_OF_ASC_NODE":"329.0765","ECCENTRICITY":"0.00004420","PERIOD":"94.903","APOAPSIS":"514.188","ARG_OF_PERICENTER":"198.2364","OBJECT_NAME":"STARLINK-2352","SEMIMAJOR_AXIS":"6892.019","MEAN_ANOMALY":"161.8614","CLASSIFICATION_TYPE":"U","COUNTRY_CODE":"US","SITE":"AFETR","INCLINATION":"53.0557","LAUNCH_DATE":"2021-03-14","MEAN_MOTION_DOT":"0.00003393","BSTAR":"0.00018343000000","TIME_SYSTEM":"UTC","OBJECT_ID":"2021-021AJ","REF_FRAME":"TEME","ELEMENT_SET_NO":"999","PERIAPSIS":"513.579","RCS_SIZE":"LARGE","MEAN_ELEMENT_THEORY":"SGP4","MEAN_MOTION_DDOT":"0.0000000000000","EPHEMERIS_TYPE":"0","NORAD_CAT_ID":"47892","EPOCH":"2023-04-14T16:58:55.503840","GP_ID":"230063210","TLE_LINE2":"2 47892  53.0557 329.0765 0000442 198.2364 161.8614 15.17340678116256","CENTER_NAME":"EARTH","OBJECT_TYPE":"PAYLOAD","MEAN_MOTION":"15.17340678","REV_AT_EPOCH":"11625","FILE":"3887389","DECAY_DATE":null},{"FILE":"3887389","DECAY_DATE":null,"REV_AT_EPOCH":"11594","OBJECT_TYPE":"PAYLOAD","MEAN_MOTION":"15.06421745","CENTER_NAME":"EARTH","TLE_LINE2":"2 47894  53.0554 350.2105 0001049  92.3697 267.7412 15.06421745115946","GP_ID":"230063293","NORAD_CAT_ID":"47894","EPOCH":"2023-04-14T16:11:11.294592","EPHEMERIS_TYPE":"0","MEAN_MOTION_DDOT":"0.0000000000000","RCS_SIZE":"LARGE","MEAN_ELEMENT_THEORY":"SGP4","ELEMENT_SET_NO":"999","PERIAPSIS":"546.420","OBJECT_ID":"2021-021AL","REF_FRAME":"TEME","TIME_SYSTEM":"UTC","MEAN_MOTION_DOT":"0.00025299","BSTAR":"0.00171020000000","LAUNCH_DATE":"2021-03-14","INCLINATION":"53.0554","SITE":"AFETR","COUNTRY_CODE":"US","CLASSIFICATION_TYPE":"U","MEAN_ANOMALY":"267.7412","ARG_OF_PERICENTER":"92.3697","OBJECT_NAME":"STARLINK-2354","SEMIMAJOR_AXIS":"6925.282","PERIOD":"95.591","APOAPSIS":"547.873","ECCENTRICITY":"0.00010490","TLE_LINE1":"1 47894U 21021AL  23104.67443628  .00025299  00000-0  17102-2 0  9998","RA_OF_ASC_NODE":"350.2105"},{"RCS_SIZE":"LARGE","MEAN_ELEMENT_THEORY":"SGP4","ELEMENT_SET_NO":"999","PERIAPSIS":"546.618","EPHEMERIS_TYPE":"0","NORAD_CAT_ID":"47895","EPOCH":"2023-04-14T02:07:14.513088","MEAN_MOTION_DDOT":"0.0000000000000","TLE_LINE2":"2 47895  53.0536 352.8473 0000664  51.5648 308.5400 15.06444142116317","CENTER_NAME":"EARTH","GP_ID":"230057672","FILE":"3887333","DECAY_DATE":null,"OBJECT_TYPE":"PAYLOAD","MEAN_MOTION":"15.06444142","REV_AT_EPOCH":"11631","APOAPSIS":"547.538","PERIOD":"95.589","ARG_OF_PERICENTER":"51.5648","OBJECT_NAME":"STARLINK-2355","SEMIMAJOR_AXIS":"6925.213","TLE_LINE1":"1 47895U 21021AM  23104.08836242  .00036828  00000-0  24755-2 0  9994","RA_OF_ASC_NODE":"352.8473","ECCENTRICITY":"0.00006640","SITE":"AFETR","INCLINATION":"53.0536","CLASSIFICATION_TYPE":"U","MEAN_ANOMALY":"308.5400","COUNTRY_CODE":"US","MEAN_MOTION_DOT":"0.00036828","BSTAR":"0.00247550000000","LAUNCH_DATE":"2021-03-14","OBJECT_ID":"2021-021AM","REF_FRAME":"TEME","TIME_SYSTEM":"UTC"},{"BSTAR":"0.00130420000000","MEAN_MOTION_DOT":"0.00019201","LAUNCH_DATE":"2021-03-14","OBJECT_ID":"2021-021AN","REF_FRAME":"TEME","TIME_SYSTEM":"UTC","PERIOD":"95.592","APOAPSIS":"548.118","ARG_OF_PERICENTER":"96.1007","SEMIMAJOR_AXIS":"6925.332","OBJECT_NAME":"STARLINK-2356","TLE_LINE1":"1 47896U 21021AN  23104.87761484  .00019201  00000-0  13042-2 0  9990","RA_OF_ASC_NODE":"4.2988","ECCENTRICITY":"0.00013310","SITE":"AFETR","INCLINATION":"53.0557","CLASSIFICATION_TYPE":"U","MEAN_ANOMALY":"264.0134","COUNTRY_CODE":"US","TLE_LINE2":"2 47896  53.0557   4.2988 0001331  96.1007 264.0134 15.06405489115765","CENTER_NAME":"EARTH","GP_ID":"230064258","FILE":"3887440","DECAY_DATE":null,"OBJECT_TYPE":"PAYLOAD","MEAN_MOTION":"15.06405489","REV_AT_EPOCH":"11576","RCS_SIZE":"LARGE","MEAN_ELEMENT_THEORY":"SGP4","ELEMENT_SET_NO":"999","PERIAPSIS":"546.275","EPHEMERIS_TYPE":"0","NORAD_CAT_ID":"47896","EPOCH":"2023-04-14T21:03:45.922176","MEAN_MOTION_DDOT":"0.0000000000000"},{"REV_AT_EPOCH":"11634","OBJECT_TYPE":"PAYLOAD","MEAN_MOTION":"15.06421336","FILE":"3887333","DECAY_DATE":null,"GP_ID":"230056669","CENTER_NAME":"EARTH","TLE_LINE2":"2 47897  53.0535 352.8466 0001069  68.7372 291.3731 15.06421336116343","MEAN_MOTION_DDOT":"0.0000000000000","NORAD_CAT_ID":"47897","EPOCH":"2023-04-14T02:05:52.962720","EPHEMERIS_TYPE":"0","ELEMENT_SET_NO":"999","PERIAPSIS":"546.408","RCS_SIZE":"LARGE","MEAN_ELEMENT_THEORY":"SGP4","TIME_SYSTEM":"UTC","OBJECT_ID":"2021-021AP","REF_FRAME":"TEME","LAUNCH_DATE":"2021-03-14","BSTAR":"0.00173710000000","MEAN_MOTION_DOT":"0.00025702","COUNTRY_CODE":"US","CLASSIFICATION_TYPE":"U","MEAN_ANOMALY":"291.3731","INCLINATION":"53.0535","SITE":"AFETR","ECCENTRICITY":"0.00010690","TLE_LINE1":"1 47897U 21021AP  23104.08741855  .00025702  00000-0  17371-2 0  9996","RA_OF_ASC_NODE":"352.8466","ARG_OF_PERICENTER":"68.7372","SEMIMAJOR_AXIS":"6925.283","OBJECT_NAME":"STARLINK-2357","APOAPSIS":"547.888","PERIOD":"95.591"},{"LAUNCH_DATE":"2021-03-14","MEAN_MOTION_DOT":"0.00029055","BSTAR":"0.00195930000000","TIME_SYSTEM":"UTC","OBJECT_ID":"2021-021AQ","REF_FRAME":"TEME","TLE_LINE1":"1 47898U 21021AQ  23104.08098422  .00029055  00000-0  19593-2 0  9995","RA_OF_ASC_NODE":"352.8742","ECCENTRICITY":"0.00008200","APOAPSIS":"547.656","PERIOD":"95.590","ARG_OF_PERICENTER":"100.6093","OBJECT_NAME":"STARLINK-2358","SEMIMAJOR_AXIS":"6925.223","MEAN_ANOMALY":"259.4988","CLASSIFICATION_TYPE":"U","COUNTRY_CODE":"US","SITE":"AFETR","INCLINATION":"53.0545","GP_ID":"230056920","TLE_LINE2":"2 47898  53.0545 352.8742 0000820 100.6093 259.4988 15.06441070116281","CENTER_NAME":"EARTH","MEAN_MOTION":"15.06441070","OBJECT_TYPE":"PAYLOAD","REV_AT_EPOCH":"11628","FILE":"3887333","DECAY_DATE":null,"ELEMENT_SET_NO":"999","PERIAPSIS":"546.520","RCS_SIZE":"LARGE","MEAN_ELEMENT_THEORY":"SGP4","MEAN_MOTION_DDOT":"0.0000000000000","EPHEMERIS_TYPE":"0","EPOCH":"2023-04-14T01:56:37.036608","NORAD_CAT_ID":"47898"},{"MEAN_MOTION":"15.42707689","OBJECT_TYPE":"PAYLOAD","REV_AT_EPOCH":"130","FILE":"3887333","DECAY_DATE":null,"GP_ID":"230057171","TLE_LINE2":"2 47899  53.0536 338.8102 0001275 100.3041 329.8618 15.42707689  1300","CENTER_NAME":"EARTH","MEAN_MOTION_DDOT":"0.0000000000000","EPHEMERIS_TYPE":"0","NORAD_CAT_ID":"47899","EPOCH":"2023-04-14T14:00:01.999872","ELEMENT_SET_NO":"999","PERIAPSIS":"437.255","RCS_SIZE":"LARGE","MEAN_ELEMENT_THEORY":"SGP4","TIME_SYSTEM":"UTC","OBJECT_ID":"2021-021AR","REF_FRAME":"TEME","LAUNCH_DATE":"2021-03-14","MEAN_MOTION_DOT":"0.01400417","BSTAR":"0.02870600000000","MEAN_ANOMALY":"329.8618","CLASSIFICATION_TYPE":"U","COUNTRY_CODE":"US","SITE":"AFETR","INCLINATION":"53.0536","TLE_LINE1":"1 47899U 21021AR  23104.58335648  .01400417  00000-0  28706-1 0  9996","RA_OF_ASC_NODE":"338.8102","ECCENTRICITY":"0.00012750","PERIOD":"93.342","APOAPSIS":"438.993","ARG_OF_PERICENTER":"100.3041","OBJECT_NAME":"STARLINK-2359","SEMIMAJOR_AXIS":"6816.259"},{"ECCENTRICITY":"0.00005960","RA_OF_ASC_NODE":"352.7797","TLE_LINE1":"1 47900U 21021AS  23104.10215694  .00025144  00000-0  16995-2 0  9992","OBJECT_NAME":"STARLINK-2360","SEMIMAJOR_AXIS":"6925.254","ARG_OF_PERICENTER":"58.4839","APOAPSIS":"547.532","PERIOD":"95.590","COUNTRY_CODE":"US","MEAN_ANOMALY":"301.6208","CLASSIFICATION_TYPE":"U","INCLINATION":"53.0553","SITE":"AFETR","LAUNCH_DATE":"2021-03-14","MEAN_MOTION_DOT":"0.00025144","BSTAR":"0.00169950000000","TIME_SYSTEM":"UTC","REF_FRAME":"TEME","OBJECT_ID":"2021-021AS","PERIAPSIS":"546.706","ELEMENT_SET_NO":"999","MEAN_ELEMENT_THEORY":"SGP4","RCS_SIZE":"LARGE","MEAN_MOTION_DDOT":"0.0000000000000","NORAD_CAT_ID":"47900","EPOCH":"2023-04-14T02:27:06.359616","EPHEMERIS_TYPE":"0","GP_ID":"230055919","CENTER_NAME":"EARTH","TLE_LINE2":"2 47900  53.0553 352.7797 0000596  58.4839 301.6208 15.06430917116341","REV_AT_EPOCH":"11634","MEAN_MOTION":"15.06430917","OBJECT_TYPE":"PAYLOAD","DECAY_DATE":null,"FILE":"3887333"}];
